{"type": "FeatureCollection", "features": [ {"type": "Feature", "properties": {"norad_id": 66650, "name": "BEE-1000", "group": "last-30-days", "lat": -60.36486479145453, "lon": -68.88292397330538, "alt_km": 596.2000001484212, "timestamp": "2025-12-16T03:53:25.816520+00:00", "meta": {"OBJECT_NAME": "BEE-1000", "OBJECT_ID": "2025-274A", "EPOCH": "2025-12-15T00:47:46.213728", "MEAN_MOTION": 14.91671974, "ECCENTRICITY": 0.00104313, "INCLINATION": 97.7391, "RA_OF_ASC_NODE": 276.1786, "ARG_OF_PERICENTER": 242.8102, "MEAN_ANOMALY": 117.2054, "EPHEMERIS_TYPE": 0, "CLASSIFICATION_TYPE": "U", "NORAD_CAT_ID": 66650, "ELEMENT_SET_NO": 999, "REV_AT_EPOCH": 274, "BSTAR": 0.00015257713, "MEAN_MOTION_DOT": 1.479e-05, "MEAN_MOTION_DDOT": 0}, "tle": {"line1": "1 66650U 25274A   25349.03317377  .00001479  00000+0  15258-3 0  9991", "line2": "2 66650  97.7391 276.1786 0010431 242.8102 117.2054 14.91671974  2748"}}, "geometry": {"type": "Point", "coordinates": [-68.88292397330538, -60.36486479145453]}}, {"type": "Feature", "properties": {"norad_id": 66651, "name": "2025-274B", "group": "last-30-days", "lat": -53.8206756420519, "lon": -71.99541429088765, "alt_km": 596.4332505564871, "timestamp": "2025-12-16T03:53:25.816533+00:00", "meta": {"OBJECT_NAME": "2025-274B", "OBJECT_ID": "2025-274B", "EPOCH": "2025-12-15T07:12:27.796608", "MEAN_MOTION": 14.91821445, "ECCENTRICITY": 0.00106791, "INCLINATION": 97.7388, "RA_OF_ASC_NODE": 276.4424, "ARG_OF_PERICENTER": 240.7182, "MEAN_ANOMALY": 119.297, "EPHEMERIS_TYPE": 0, "CLASSIFICATION_TYPE": "U", "NORAD_CAT_ID": 66651, "ELEMENT_SET_NO": 999, "REV_AT_EPOCH": 278, "BSTAR": 0.00028846735, "MEAN_MOTION_DOT": 2.858e-05, "MEAN_MOTION_DDOT": 0}, "tle": {"line1": "1 66651U 25274B   25349.30032172  .00002858  00000+0  28847-3 0  9999", "line2": "2 66651  97.7388 276.4424 0010679 240.7182 119.2970 14.91821445  2789"}}, "geometry": {"type": "Point", "coordinates": [-71.99541429088765, -53.8206756420519]}}, {"type": "Feature", "properties": {"norad_id": 66652, "name": "2025-274C", "group": "last-30-days", "lat": -45.11621366584825, "lon": -74.85830670329182, "alt_km": 596.1920181144296, "timestamp": "2025-12-16T03:53:25.816545+00:00", "meta": {"OBJECT_NAME": "2025-274C", "OBJECT_ID": "2025-274C", "EPOCH": "2025-12-15T07:10:09.080544", "MEAN_MOTION": 14.91919225, "ECCENTRICITY": 0.00102615, "INCLINATION": 97.7394, "RA_OF_ASC_NODE": 276.4456, "ARG_OF_PERICENTER": 247.771, "MEAN_ANOMALY": 112.2421, "EPHEMERIS_TYPE": 0, "CLASSIFICATION_TYPE": "U", "NORAD_CAT_ID": 66652, "ELEMENT_SET_NO": 999, "REV_AT_EPOCH": 278, "BSTAR": 0.00025427643, "MEAN_MOTION_DOT": 2.518e-05, "MEAN_MOTION_DDOT": 0}, "tle": {"line1": "1 66652U 25274C   25349.29871621  .00002518  00000+0  25428-3 0  9993", "line2": "2 66652  97.7394 276.4456 0010261 247.7710 112.2421 14.91919225  2781"}}, "geometry": {"type": "Point", "coordinates": [-74.85830670329182, -45.11621366584825]}}, {"type": "Feature", "properties": {"norad_id": 66653, "name": "2025-274D", "group": "last-30-days", "lat": -44.66360130279, "lon": -74.98248514844306, "alt_km": 596.51394372089, "timestamp": "2025-12-16T03:53:25.816556+00:00", "meta": {"OBJECT_NAME": "2025-274D", "OBJECT_ID": "2025-274D", "EPOCH": "2025-12-15T05:33:27.145152", "MEAN_MOTION": 14.91922532, "ECCENTRICITY": 0.00111736, "INCLINATION": 97.7391, "RA_OF_ASC_NODE": 276.3796, "ARG_OF_PERICENTER": 244.0296, "MEAN_ANOMALY": 115.9772, "EPHEMERIS_TYPE": 0, "CLASSIFICATION_TYPE": "U", "NORAD_CAT_ID": 66653, "ELEMENT_SET_NO": 999, "REV_AT_EPOCH": 277, "BSTAR": 0.0002062714, "MEAN_MOTION_DOT": 2.033e-05, "MEAN_MOTION_DDOT": 0}, "tle": {"line1": "1 66653U 25274D   25349.23156418  .00002033  00000+0  20627-3 0  9996", "line2": "2 66653  97.7391 276.3796 0011173 244.0296 115.9772 14.91922532  2770"}}, "geometry": {"type": "Point", "coordinates": [-74.98248514844306, -44.66360130279]}}, {"type": "Feature", "properties": {"norad_id": 66654, "name": "JACK E", "group": "last-30-days", "lat": -32.979414724996914, "lon": -77.63815571438009, "alt_km": 596.712818483521, "timestamp": "2025-12-16T03:53:25.816566+00:00", "meta": {"OBJECT_NAME": "JACK E", "OBJECT_ID": "2025-274E", "EPOCH": "2025-12-15T07:06:59.686560", "MEAN_MOTION": 14.92101204, "ECCENTRICITY": 0.00116592, "INCLINATION": 97.7394, "RA_OF_ASC_NODE": 276.4488, "ARG_OF_PERICENTER": 245.5252, "MEAN_ANOMALY": 114.4751, "EPHEMERIS_TYPE": 0, "CLASSIFICATION_TYPE": "U", "NORAD_CAT_ID": 66654, "ELEMENT_SET_NO": 999, "REV_AT_EPOCH": 278, "BSTAR": 0.00024359131, "MEAN_MOTION_DOT": 2.422e-05, "MEAN_MOTION_DDOT": 0}, "tle": {"line1": "1 66654U 25274E   25349.29652415  .00002422  00000+0  24359-3 0  9999", "line2": "2 66654  97.7394 276.4488 0011659 245.5252 114.4751 14.92101204  2788"}}, "geometry": {"type": "Point", "coordinates": [-77.63815571438009, -32.979414724996914]}}, {"type": "Feature", "properties": {"norad_id": 66655, "name": "2025-274F", "group": "last-30-days", "lat": -41.294328357943584, "lon": -75.8516452946057, "alt_km": 598.6338590905671, "timestamp": "2025-12-16T03:53:25.816576+00:00", "meta": {"OBJECT_NAME": "2025-274F", "OBJECT_ID": "2025-274F", "EPOCH": "2025-12-15T08:45:05.638176", "MEAN_MOTION": 14.91164366, "ECCENTRICITY": 0.00052445, "INCLINATION": 97.7326, "RA_OF_ASC_NODE": 276.5125, "ARG_OF_PERICENTER": 12.5035, "MEAN_ANOMALY": 347.6313, "EPHEMERIS_TYPE": 0, "CLASSIFICATION_TYPE": "U", "NORAD_CAT_ID": 66655, "ELEMENT_SET_NO": 999, "REV_AT_EPOCH": 279, "BSTAR": 1.0104241e-05, "MEAN_MOTION_DOT": 4.5e-07, "MEAN_MOTION_DDOT": 0}, "tle": {"line1": "1 66655U 25274F   25349.36464859  .00000045  00000+0  10104-4 0  9994", "line2": "2 66655  97.7326 276.5125 0005244  12.5035 347.6313 14.91164366  2799"}}, "geometry": {"type": "Point", "coordinates": [-75.8516452946057, -41.294328357943584]}}, {"type": "Feature", "properties": {"norad_id": 66656, "name": "2025-274G", "group": "last-30-days", "lat": -20.15007116476072, "lon": -79.83569554725725, "alt_km": 596.8091834548795, "timestamp": "2025-12-16T03:53:25.816586+00:00", "meta": {"OBJECT_NAME": "2025-274G", "OBJECT_ID": "2025-274G", "EPOCH": "2025-12-15T05:27:06.968736", "MEAN_MOTION": 14.92293354, "ECCENTRICITY": 0.00123258, "INCLINATION": 97.7392, "RA_OF_ASC_NODE": 276.3854, "ARG_OF_PERICENTER": 247.5109, "MEAN_ANOMALY": 112.4806, "EPHEMERIS_TYPE": 0, "CLASSIFICATION_TYPE": "U", "NORAD_CAT_ID": 66656, "ELEMENT_SET_NO": 999, "REV_AT_EPOCH": 277, "BSTAR": 0.00028122209, "MEAN_MOTION_DOT": 2.819e-05, "MEAN_MOTION_DDOT": 0}, "tle": {"line1": "1 66656U 25274G   25349.22716399  .00002819  00000+0  28122-3 0  9998", "line2": "2 66656  97.7392 276.3854 0012325 247.5109 112.4806 14.92293354  2774"}}, "geometry": {"type": "Point", "coordinates": [-79.83569554725725, -20.15007116476072]}}, {"type": "Feature", "properties": {"norad_id": 66657, "name": "SPIRONE", "group": "last-30-days", "lat": -7.761419776583576, "lon": -81.62954082058187, "alt_km": 594.0324867392919, "timestamp": "2025-12-16T03:53:25.816596+00:00", "meta": {"OBJECT_NAME": "SPIRONE", "OBJECT_ID": "2025-274H", "EPOCH": "2025-12-14T21:21:11.889216", "MEAN_MOTION": 14.92469641, "ECCENTRICITY": 0.0010573, "INCLINATION": 97.7387, "RA_OF_ASC_NODE": 276.0581, "ARG_OF_PERICENTER": 267.8338, "MEAN_ANOMALY": 92.1671, "EPHEMERIS_TYPE": 0, "CLASSIFICATION_TYPE": "U", "NORAD_CAT_ID": 66657, "ELEMENT_SET_NO": 999, "REV_AT_EPOCH": 272, "BSTAR": 0.00029561901, "MEAN_MOTION_DOT": 2.979e-05, "MEAN_MOTION_DDOT": 0}, "tle": {"line1": "1 66657U 25274H   25348.88972094  .00002979  00000+0  29562-3 0  9992", "line2": "2 66657  97.7387 276.0581 0010573 267.8338  92.1671 14.92469641  2728"}}, "geometry": {"type": "Point", "coordinates": [-81.62954082058187, -7.761419776583576]}}, {"type": "Feature", "properties": {"norad_id": 66658, "name": "2025-274J", "group": "last-30-days", "lat": 4.276702274348558, "lon": -83.26884182995616, "alt_km": 593.232928773492, "timestamp": "2025-12-16T03:53:25.816619+00:00", "meta": {"OBJECT_NAME": "2025-274J", "OBJECT_ID": "2025-274J", "EPOCH": "2025-12-15T08:33:52.796448", "MEAN_MOTION": 14.92642616, "ECCENTRICITY": 0.00110859, "INCLINATION": 97.739, "RA_OF_ASC_NODE": 276.5223, "ARG_OF_PERICENTER": 269.0154, "MEAN_ANOMALY": 90.9795, "EPHEMERIS_TYPE": 0, "CLASSIFICATION_TYPE": "U", "NORAD_CAT_ID": 66658, "ELEMENT_SET_NO": 999, "REV_AT_EPOCH": 279, "BSTAR": 0.00027440587, "MEAN_MOTION_DOT": 2.773e-05, "MEAN_MOTION_DDOT": 0}, "tle": {"line1": "1 66658U 25274J   25349.35686107  .00002773  00000+0  27441-3 0  9999", "line2": "2 66658  97.7390 276.5223 0011085 269.0154  90.9795 14.92642616  2795"}}, "geometry": {"type": "Point", "coordinates": [-83.26884182995616, 4.276702274348558]}}, {"type": "Feature", "properties": {"norad_id": 66659, "name": "JACK K", "group": "last-30-days", "lat": 17.15340471046259, "lon": -85.08566944196599, "alt_km": 592.4391427740929, "timestamp": "2025-12-16T03:53:25.816633+00:00", "meta": {"OBJECT_NAME": "JACK K", "OBJECT_ID": "2025-274K", "EPOCH": "2025-12-15T08:30:32.277600", "MEAN_MOTION": 14.92827063, "ECCENTRICITY": 0.00118568, "INCLINATION": 97.7391, "RA_OF_ASC_NODE": 276.526, "ARG_OF_PERICENTER": 270.4958, "MEAN_ANOMALY": 89.4903, "EPHEMERIS_TYPE": 0, "CLASSIFICATION_TYPE": "U", "NORAD_CAT_ID": 66659, "ELEMENT_SET_NO": 999, "REV_AT_EPOCH": 279, "BSTAR": 0.00027566364, "MEAN_MOTION_DOT": 2.8e-05, "MEAN_MOTION_DDOT": 0}, "tle": {"line1": "1 66659U 25274K   25349.35454025  .00002800  00000+0  27566-3 0  9991", "line2": "2 66659  97.7391 276.5260 0011856 270.4958  89.4903 14.92827063  2797"}}, "geometry": {"type": "Point", "coordinates": [-85.08566944196599, 17.15340471046259]}}]}